UNKNOWN                 
1 82369U 99025    23190.83779769  .00000044  00000+0  60660-4 0  9993
2 82369  98.9683 219.0706 0083012 265.4081  93.7596 13.97330720433271
UNKNOWN                 
1 82381U          23189.98377070  .00006643  00000+0  18935-2 0  9992
2 82381  98.4625  28.6585 0017434  14.9903 345.1802 14.45458492381255
UNKNOWN                 
1 82383U          23171.70159888  .01502230  00000+0  13563-1 0  9995
2 82383  98.2262 256.9507 0021118 265.8647  94.0196 15.65104948413189
UNKNOWN                 
1 82402U          23191.37175201  .00003273  00000+0  34513-3 0  9991
2 82402  86.6707 173.6830 0012396 117.3345 242.9145 14.88957580321980
UNKNOWN                 
1 82410U          23189.62972574  .00000296  00000+0  37227-3 0  9990
2 82410  66.6586 309.1921 0070220 262.9895  96.3186 13.76405025464472
UNKNOWN                 
1 82428U          23192.10102157  .00076311  00000+0  30010-1 0  9990
2 82428  63.1576  83.2146 0091851  52.9815 307.9610 14.26358254297860
UNKNOWN                 
1 82432U 93036    23191.08704875  .00000991  00000+0  24454-3 0  9995
2 82432  74.0081 223.0822 0063081 244.2887 115.1753 14.52341278353914
UNKNOWN                 
1 82448U          23192.30166333  .00003177  00000+0  33467-3 0  9991
2 82448  85.8775 306.5430 0010596 176.8471 183.2823 14.88991344304683
UNKNOWN                 
1 82453U          23191.57079553  .00000014  00000+0  43554-3 0  9997
2 82453 102.0459 142.3009 0094882  45.7011 315.1786 12.39587690436254
UNKNOWN                 
1 82458U          23180.59502268  .00001793  00000+0  99077-3 0  9992
2 82458  66.5101 339.9729 0072498 256.3711 102.9296 14.12429577482886
UNKNOWN                 
1 82464U          23192.49818466  .00010080  00000+0  23193-2 0  9995
2 82464  70.9966 229.1735 0068264  35.4901  33.8807 14.54140835505914
UNKNOWN                 
1 82475U          23187.34899901  .00002255  00000+0  13076-2 0  9992
2 82475  99.0934 236.5291 0103826  64.3958 296.7895 14.07146816420768
UNKNOWN                 
1 82484U          23191.58315844  .00000117  00000+0  22900-3 0  9994
2 82484  99.4610 243.5833 0043552 276.2783  83.3395 13.55293426470573
UNKNOWN                 
1 82500U          23190.39769262  .00003271  00000+0  17997-2 0  9991
2 82500  70.9729  64.1498 0138931  15.0599 345.4590 14.07562196493622
UNKNOWN                 
1 82517U          23192.21168906  .00008224  00000+0  18135-2 0  9998
2 82517  86.3663  98.6665 0018597 309.6375  50.3192 14.57176217295434
UNKNOWN                 
1 82524U          23191.61781465  .00002695  00000+0  11355-2 0  9993
2 82524  73.2925  57.4567 0169065 220.1219 168.9699 14.18869932450681
UNKNOWN                 
1 82529U          23192.09168119  .00001022  00000+0  16736-2 0  9997
2 82529  99.8016 292.9640 0240211 236.7134 250.4003 13.39332925471106
UNKNOWN                 
1 82545U          23192.20575309 -.00000013  00000+0  79763-3 0  9991
2 82545  64.8808 166.4296 0164516 102.8214 259.1149 11.30789457338780
UNKNOWN                 
1 82560U          23189.61412247  .00001005  00000+0  90459-3 0  9996
2 82560 100.0113  58.9465 0010633 112.9261 274.2840 13.86752106488603
UNKNOWN                 
1 82561U          23191.41924360  .00006326  00000+0  14660-2 0  9992
2 82561  63.1070 244.2147 0518502  30.7830 343.2988 13.96470325487902
UNKNOWN                 
1 82576U          23179.88010724  .00001970  00000+0  12445-2 0  9994
2 82576  99.2139 223.8181 0112911 324.3876  34.9792 14.02255007108117
UNKNOWN                 
1 82597U          23191.73138355  .00001371  00000+0  52757-3 0  9992
2 82597  66.7734 309.8766 0109755 248.7582 110.1766 14.30068859502045
UNKNOWN                 
1 82616U          23166.08787521  .00366180  00000+0  74227-2 0  9996
2 82616  97.2515 219.8086 0012933  28.5502 331.6453 15.44930592431328
UNKNOWN                 
1 82617U          23192.21861304  .00000490  00000+0  14098-3 0  9993
2 82617  74.0286 102.5952 0041467 264.4763  95.1665 14.47031416508636
UNKNOWN                 
1 82627U          23191.36088804  .00000282  00000+0  72661-3 0  9994
2 82627  82.4780 159.7486 0012517 109.5013  43.6362 13.14502192462296
UNKNOWN                 
1 82642U          23190.96848238  .00001741  00000+0  10863-2 0  9997
2 82642  98.9911  99.9864 0142784 185.1288 174.8422 14.01186501491688
UNKNOWN                 
1 82683U 99057    23192.58790240  .00001423  00000+0  58706-3 0  9997
2 82683  98.1726 318.4434 0224715  96.7395 265.9407 14.15365738336849
UNKNOWN                 
1 82693U          23190.92898590  .00001921  00000+0  25130-2 0  9998
2 82693 100.5356  67.3493 0049210  57.4400 303.1478 13.62591569432684
UNKNOWN                 
1 82698U          23189.48052529  .00000555  00000+0  39029-3 0  9991
2 82698  61.6133 358.4101 0713798 327.2670  28.5932 13.23296147420541
UNKNOWN                 
1 82708U          23189.10919438  .00000921  00000+0  37940-2 0  9999
2 82708 102.1469 298.1411 0061033 275.7578  83.6556 12.88084993408995
UNKNOWN                 
1 82729U          23183.88323645  .00001736  00000+0  58463-2 0  9998
2 82729  67.9600 249.6715 0842666 262.0718  88.3932 12.16697703426423
UNKNOWN                 
1 82737U          23191.96741084  .00006153  00000+0  64071-2 0  9996
2 82737 102.9817 100.0346 0299648 302.4688  54.7794 13.58126640425799
UNKNOWN                 
1 82739U          23191.00375552  .00001483  00000+0  13449-2 0  9990
2 82739  99.0301  13.5922 0180821 141.5678  11.7486 13.77978901483775
UNKNOWN                 
1 82741U          23192.50631864  .00001799  00000+0  21989-2 0  9998
2 82741 102.8631 298.1646 0209538  79.4184 283.0470 13.59049008476517
UNKNOWN                 
1 82783U          23192.23783036  .00000187  00000+0  53619-3 0  9999
2 82783  90.3105  11.3876 0021202 343.6150  16.4288 13.07584459388579
UNKNOWN                 
1 82785U          23192.10169004  .00027726  00000+0  28056-2 0  9994
2 82785  63.1193  12.6630 0345662  69.6891 294.0977 14.55492107503079
UNKNOWN                 
1 82798U          23189.75999094  .00002174  00000+0  10835-2 0  9991
2 82798  82.9531 179.4730 0031638 323.1969 210.8663 14.16288852186397
UNKNOWN                 
1 82820U          23191.82802032  .00001918  00000+0  84350-3 0  9992
2 82820  99.7909 234.9097 0057320   2.6995 357.4479 14.24037733499091
UNKNOWN                 
1 82829U          23192.04987256  .00000175  00000+0  60350-2 0  9995
2 82829  65.1012  40.2579 0169449 173.4651 344.5940 11.28973164386089
UNKNOWN                 
1 82854U          23192.81437314  .00001152  00000+0  97488-3 0  9992
2 82854  82.6911  35.6878 0132603 260.4499  98.1656 13.82990792957637
UNKNOWN                 
1 82873U          23190.80148849  .00002939  00000+0  15508-2 0  9998
2 82873  99.9983 319.4713 0045607 208.2720 151.5973 14.14280974495401
UNKNOWN                 
1 82875U          23192.25786039  .00000663  00000+0  19238-3 0  9997
2 82875  98.6087 192.1771 0388679 299.9289  56.3814 14.11935889419377
UNKNOWN                 
1 82893U          23191.51458823  .00003485  00000+0  19041-2 0  9998
2 82893  98.9661 282.7245 0033879  69.2236 291.2560 14.12364631298093
UNKNOWN                 
1 82912U          23191.59030186  .00001133  00000+0  51746-3 0  9993
2 82912  65.8420  39.6391 0817748 312.1332  41.2922 13.18062595462114
UNKNOWN                 
1 82959U          23188.58015444  .00001380  00000+0  78543-3 0  9997
2 82959 100.0902 235.6262 0054614 158.7398 201.6056 14.11119167418289
UNKNOWN                 
1 82961U          23191.84658639  .00006406  00000+0  13373-1 0  9994
2 82961  99.9159  35.9353 0456512 251.3970 103.7048 12.99025004439661
UNKNOWN                 
1 82965U 70025    23186.35672354  .00000905  00000+0  13382-2 0  9991
2 82965 100.1754 225.8576 0002386 131.9582 228.1758 13.57089422403419
UNKNOWN                 
1 83903U          23192.51891795 -.00000056  00000+0  00000+0 0  9995
2 83903   8.3484 299.2016 0129755 223.2926 145.6835  0.99115940 34890
UNKNOWN                 
1 83934U          23190.14594755 -.00000044  00000+0  00000+0 0  9999
2 83934   7.7736 304.7896 0227220 243.4104 123.7005  1.02660341 36177
UNKNOWN                 
1 83970U          23192.09607245  .00005486  00000+0  42997-2 0  9992
2 83970  18.2470 132.9956 5160085 110.4631 310.6730  5.21770936149483
UNKNOWN                 
1 83975U          23188.87299463 -.00000087  00000+0  00000+0 0  9996
2 83975  19.5951 342.8884 7018172 181.9753 172.2132  2.15323101 63208
UNKNOWN                 
1 84006U          23192.43547804 -.00000261  00000+0  00000+0 0  9998
2 84006  23.9308 348.4957 6132181 122.0674 312.0146  2.16236939 65075
UNKNOWN                 
1 84071U          23176.02925044  .00014035  00000+0  59447-2 0  9998
2 84071  20.6215  91.4078 6928697 161.4801 248.3836  2.71579206 79925
UNKNOWN                 
1 84170U 12008    23191.10652055  .00005041  00000+0  35506-2 0  9991
2 84170  21.2179  28.3675 6911038 176.2618 194.7862  2.72104480 70040
UNKNOWN                 
1 84188U          23192.17281957  .00014209  00000+0  57111-1 0  9997
2 84188  64.9480 129.9590 4587815  92.2404 319.1102  5.86498268185069
UNKNOWN                 
1 84232U 79104    23185.00493420  .00005037  00000+0  48324-2 0  9998
2 84232  20.6041  36.2875 6801190 273.1025  17.2751  2.85111934 77696
UNKNOWN                 
1 84236U          23191.64112229  .00000254  00000+0  16523-2 0  9995
2 84236   9.4077  20.2139 6927189  21.5315 357.2181  2.60147369179538
UNKNOWN                 
1 84292U          23185.46106169  .00010352  00000+0  29520-2 0  9997
2 84292  23.8962 299.1695 4730744 280.8573  31.1521  6.01537747173284
UNKNOWN                 
1 84353U          23181.31162271 -.00000075  00000+0  00000+0 0  9992
2 84353  18.1951 191.5136 6745727  72.3270 346.9605  2.03727246 49846
UNKNOWN                 
1 84406U          23189.60377177  .00000298  00000+0  18296-2 0  9999
2 84406 101.6868 313.8177 0038819 357.0285  16.3019 12.65768463936874
